IRIDIUM 126             
1 42809U 17039G   25109.58396934 -.00000026  00000+0 -16393-4 0  9992
2 42809  86.4023 170.6923 0002039  90.8575 269.2854 14.34217667409239
IRIDIUM 124             
1 42810U 17039H   25110.06493681  .00000292  00000+0  80825-4 0  9990
2 42810  86.4440 107.2779 0002271  96.0330 264.1129 14.43275959414080
IRIDIUM 128             
1 42811U 17039J   25109.78401293  .00000310  00000+0  10376-3 0  9990
2 42811  86.4031 202.0635 0002210 106.9085 253.2353 14.34217507409293
IRIDIUM 121             
1 42812U 17039K   25110.23091482  .00000348  00000+0  11733-3 0  9997
2 42812  86.4025 170.4472 0002534  99.3230 260.8252 14.34217239409328
IRIDIUM 133             
1 42955U 17061A   25109.81572676  .00000408  00000+0  13858-3 0  9998
2 42955  86.4036 202.1577 0002156  97.0939 263.0502 14.34216638394090
IRIDIUM 100             
1 42956U 17061B   25110.22799442 -.00000007  00000+0 -94099-5 0  9993
2 42956  86.4035 201.9144 0002006 100.0580 260.0842 14.34217557394172
IRIDIUM 122             
1 42957U 17061C   25110.19627839  .00000444  00000+0  15138-3 0  9998
2 42957  86.4040 201.9274 0002037  98.2235 261.9192 14.34214444394150
IRIDIUM 129             
1 42958U 17061D   25110.29142152  .00000052  00000+0  11470-4 0  9991
2 42958  86.4034 201.9493 0002513  86.0212 274.1271 14.34217972394182
